RSP-03                  
1 65732U 98067XL  26037.47740754  .00742174  25962-3  14925-2 0  9994
2 65732  51.6169 207.8627 0006402 281.6300  78.3991 15.99073039 21979
YOTSUBA-KULOVER         
1 65941U 98067XN  26037.61328309  .00137879  00000+0  10927-2 0  9990
2 65941  51.6243 217.1343 0003982 238.9577 121.1030 15.70347368 18609
BOTAN                   
1 65942U 98067XP  26037.50565475  .00357545  00000+0  15696-2 0  9998
2 65942  51.6185 214.1233 0005759 263.2850  96.7497 15.83051988 18630
E-KAGAKU-1              
1 65943U 98067XQ  26037.48666354  .00141748  00000+0  11286-2 0  9991
2 65943  51.6264 217.7996 0003336 254.7502 105.3126 15.70223959 18587
HRC MONOBLOCK CAMERA    
1 66052U 98067XR  26037.51356336  .00055176  00000+0  69711-3 0  9999
2 66052  51.6274 222.4800 0000760 352.7771   7.3210 15.58994968 17521
HTV-X1                  
1 66174U 25241A   26037.53476767  .00011792  00000+0  22585-3 0  9995
2 66174  51.6316 226.3678 0011132  70.9201 289.2992 15.48439420   516
SZ-21 MODULE            
1 66515U 25246C   26037.34113549  .00038963  00000+0  36895-3 0  9992
2 66515  41.4763  35.9805 0003013 279.0982  80.9518 15.66184885 13157
SHENZHOU-22             
1 66645U 25272A   26037.47343961  .00022506  00000+0  28124-3 0  9994
2 66645  41.4680  37.9008 0005396  13.3696 346.7284 15.59287012267649
SOYUZ-MS 28             
1 66664U 25275A   26037.53476767  .00011792  00000+0  22585-3 0  9996
2 66664  51.6316 226.3678 0011132  70.9201 289.2992 15.48439420  1285
DUPLEX                  
1 66906U 98067XS  26037.09776143  .00040630  00000+0  62076-3 0  9998
2 66906  51.6285 227.2022 0001444  83.5184 276.5971 15.53999571 10210
1998-067XT              
1 66907U 98067XT  26036.77775358  .00130219  00000+0  15034-2 0  9994
2 66907  51.6265 227.3140 0002211 199.3308 160.7602 15.60974670 10180
1998-067XU              
1 66908U 98067XU  26036.77723452  .00132580  00000+0  15278-2 0  9996
2 66908  51.6270 227.3086 0002034 199.5208 160.5708 15.61013242 10185
